NORAD_CAT_ID,OBJECT_NAME,OBJECT_TYPE,EPOCH,MEAN_MOTION,ECCENTRICITY,INCLINATION,RA_OF_ASC_NODE,ARG_OF_PERICENTER,MEAN_ANOMALY,BSTAR,MEAN_MOTION_DOT,MEAN_MOTION_DDOT,TLE_LINE0,TLE_LINE1,TLE_LINE2,SEMIMAJOR_AXIS,PERIOD,APOGEE,PERIGEE,DECAYED
55790.0,STARLINK-5813,PAYLOAD,2024-06-22 12:41:37,14.98330024,0.0003131,70.0003,340.6906,263.2253,96.8549,-4.7311e-06,-1.49e-06,0.0,0 STARLINK-5813,1 55790U 23028BB  24174.52890843 -.00000149  00000-0 -47311-5 0  9995,2 55790  70.0003 340.6906 0003131 263.2253  96.8549 14.98330024 73372,6950.193,96.107,574.234,569.882,0.0
55790.0,STARLINK-5813,PAYLOAD,2024-06-22 14:17:45,14.98330049,0.0003134,70.0003,340.5223,263.1429,96.9373,-3.6804e-06,-1.37e-06,0.0,0 STARLINK-5813,1 55790U 23028BB  24174.59566836 -.00000137  00000-0 -36804-5 0  9996,2 55790  70.0003 340.5223 0003134 263.1429  96.9373 14.98330049 73395,6950.193,96.107,574.236,569.88,0.0
55790.0,STARLINK-5813,PAYLOAD,2024-06-22 20:42:18,14.98330329,0.0003198,70.0002,339.8487,265.8143,94.2651,-5.9764e-06,-1.64e-06,0.0,0 STARLINK-5813,1 55790U 23028BB  24174.86270837 -.00000164  00000-0 -59764-5 0  9999,2 55790  70.0002 339.8487 0003198 265.8143  94.2651 14.98330329 73435,6950.192,96.107,574.28,569.834,0.0
55790.0,STARLINK-5813,PAYLOAD,2024-06-23 12:43:38,14.98330083,0.000328,70.0001,338.1651,267.2228,92.8556,3.0089e-05,2.66e-06,0.0,0 STARLINK-5813,1 55790U 23028BB  24175.53030723  .00000266  00000-0  30089-4 0  9991,2 55790  70.0001 338.1651 0003280 267.2228  92.8556 14.98330083 73526,6950.193,96.107,574.337,569.778,0.0
55790.0,STARLINK-5813,PAYLOAD,2024-06-23 14:19:46,14.98330058,0.0003284,70.0001,337.9968,267.203,92.8753,2.9282e-05,2.56e-06,0.0,0 STARLINK-5813,1 55790U 23028BB  24175.59706725  .00000256  00000-0  29282-4 0  9991,2 55790  70.0001 337.9968 0003284 267.2030  92.8753 14.98330058 73542,6950.193,96.107,574.34,569.775,0.0
55790.0,STARLINK-5813,PAYLOAD,2024-06-23 20:44:18,14.98333122,0.000324,70.0002,337.3238,266.4546,93.6242,6.3421e-05,6.64e-06,0.0,0 STARLINK-5813,1 55790U 23028BB  24175.86410411  .00000664  00000-0  63421-4 0  9991,2 55790  70.0002 337.3238 0003240 266.4546  93.6242 14.98333122 73583,6950.183,96.107,574.3,569.796,0.0
55790.0,STARLINK-5813,PAYLOAD,2024-06-24 12:45:39,14.98330579,0.0003222,70.0003,335.6401,267.258,92.821,2.5347e-05,2.09e-06,0.0,0 STARLINK-5813,1 55790U 23028BB  24176.53170588  .00000209  00000-0  25347-4 0  9994,2 55790  70.0003 335.6401 0003222 267.2580  92.8210 14.98330579 73673,6950.191,96.107,574.295,569.817,0.0
55790.0,STARLINK-5813,PAYLOAD,2024-06-24 14:21:47,14.9833071,0.0003222,70.0003,335.4718,267.264,92.815,2.6396e-05,2.22e-06,0.0,0 STARLINK-5813,1 55790U 23028BB  24176.59846572  .00000222  00000-0  26396-4 0  9993,2 55790  70.0003 335.4718 0003222 267.2640  92.8150 14.98330710 73691,6950.191,96.107,574.295,569.816,0.0
55790.0,STARLINK-5813,PAYLOAD,2024-06-24 20:46:19,14.98332285,0.0003208,70.0004,334.7986,267.3516,92.7276,4.1622e-05,4.04e-06,0.0,0 STARLINK-5813,1 55790U 23028BB  24176.86550403  .00000404  00000-0  41622-4 0  9999,2 55790  70.0004 334.7986 0003208 267.3516  92.7276 14.98332285 73730,6950.186,96.107,574.28,569.821,0.0
55790.0,STARLINK-5813,PAYLOAD,2024-06-25 12:47:40,14.98330464,0.0003108,70.0006,333.1154,266.77,93.3103,-1.2627e-05,-2.44e-06,0.0,0 STARLINK-5813,1 55790U 23028BB  24177.53310615 -.00000244  00000-0 -12627-4 0  9990,2 55790  70.0006 333.1154 0003108 266.7700  93.3103 14.98330464 73822,6950.191,96.107,574.217,569.896,0.0
55790.0,STARLINK-5813,PAYLOAD,2024-06-25 14:23:48,14.98330324,0.0003114,70.0006,332.9471,266.649,93.4312,-1.422e-05,-2.63e-06,0.0,0 STARLINK-5813,1 55790U 23028BB  24177.59986623 -.00000263  00000-0 -14220-4 0  9996,2 55790  70.0006 332.9471 0003114 266.6490  93.4312 14.98330324 73843,6950.192,96.107,574.221,569.893,0.0
55790.0,STARLINK-5813,PAYLOAD,2024-06-25 20:48:20,14.98331807,0.0003088,70.0007,332.2739,267.1328,92.9478,4.8903e-06,-3.5e-07,0.0,0 STARLINK-5813,1 55790U 23028BB  24177.86690458 -.00000035  00000-0  48903-5 0  9996,2 55790  70.0007 332.2739 0003088 267.1328  92.9478 14.98331807 73888,6950.187,96.107,574.199,569.906,0.0
55790.0,STARLINK-5813,PAYLOAD,2024-06-26 11:13:33,14.98330874,0.0003038,70.0009,330.7589,268.3811,91.7,1.8815e-05,1.32e-06,0.0,0 STARLINK-5813,1 55790U 23028BB  24178.46774410  .00000132  00000-0  18815-4 0  9999,2 55790  70.0009 330.7589 0003038 268.3811  91.7000 14.98330874 73972,6950.19,96.107,574.167,569.944,0.0
55790.0,STARLINK-5813,PAYLOAD,2024-06-27 12:51:42,14.98329844,0.0003213,70.0006,328.0667,264.3018,95.7775,-2.2861e-06,-1.2e-06,0.0,0 STARLINK-5813,1 55790U 23028BB  24179.53590516 -.00000120  00000-0 -22861-5 0  9997,2 55790  70.0006 328.0667 0003213 264.3018  95.7775 14.98329844 74122,6950.193,96.107,574.291,569.825,0.0
55790.0,STARLINK-5813,PAYLOAD,2024-06-27 19:16:14,14.98328178,0.0003221,70.0006,327.3926,267.6418,92.4373,-1.4918e-05,-2.71e-06,0.0,0 STARLINK-5813,1 55790U 23028BB  24179.80294693 -.00000271  00000-0 -14918-4 0  9994,2 55790  70.0006 327.3926 0003221 267.6418  92.4373 14.98328178 74173,6950.199,96.107,574.302,569.825,0.0
55790.0,STARLINK-5813,PAYLOAD,2024-06-28 03:16:55,14.98320487,0.0003243,70.0005,326.5511,269.8336,90.2451,-9.7072e-05,-1.251e-05,0.0,0 STARLINK-5813,1 55790U 23028BB  24180.13675524 -.00001251  00000-0 -97072-4 0  9999,2 55790  70.0005 326.5511 0003243 269.8336  90.2451 14.98320487 74213,6950.222,96.108,574.341,569.833,0.0
55790.0,STARLINK-5813,PAYLOAD,2024-06-28 14:29:52,14.98314682,0.0003207,70.0004,325.3722,268.7006,91.3786,-9.3466e-05,-1.208e-05,0.0,0 STARLINK-5813,1 55790U 23028BB  24180.60408264 -.00001208  00000-0 -93466-4 0  9991,2 55790  70.0004 325.3722 0003207 268.7006  91.3786 14.98314682 74296,6950.24,96.108,574.334,569.876,0.0
55790.0,STARLINK-5813,PAYLOAD,2024-06-28 19:18:16,14.98324468,0.0003455,69.9999,324.867,268.407,91.6693,-1.0888e-05,-2.23e-06,0.0,0 STARLINK-5813,1 55790U 23028BB  24180.80435507 -.00000223  00000-0 -10888-4 0  9996,2 55790  69.9999 324.8670 0003455 268.4070  91.6693 14.98324468 74322,6950.21,96.107,574.476,569.674,0.0
55790.0,STARLINK-5813,PAYLOAD,2024-06-29 03:18:56,14.98328019,0.0003342,70.0,324.0245,266.4148,93.6629,6.5078e-05,6.84e-06,0.0,0 STARLINK-5813,1 55790U 23028BB  24181.13815164  .00000684  00000-0  65078-4 0  9994,2 55790  70.0000 324.0245 0003342 266.4148  93.6629 14.98328019 74368,6950.199,96.107,574.387,569.741,0.0
55790.0,STARLINK-5813,PAYLOAD,2024-06-29 14:31:52,14.9833374,0.0003332,70.0,322.8457,265.538,94.5398,0.00012328,1.378e-05,0.0,0 STARLINK-5813,1 55790U 23028BB  24181.60546664  .00001378  00000-0  12328-3 0  9992,2 55790  70.0000 322.8457 0003332 265.5380  94.5398 14.98333740 74445,6950.181,96.107,574.362,569.731,0.0
55790.0,STARLINK-5813,PAYLOAD,2024-06-29 19:20:15,14.98340759,0.0003392,70.0,322.3417,267.8161,92.2609,0.00018563,2.123e-05,0.0,0 STARLINK-5813,1 55790U 23028BB  24181.80574027  .00002123  00000-0  18563-3 0  9994,2 55790  70.0000 322.3417 0003392 267.8161  92.2609 14.98340759 74464,6950.16,96.106,574.382,569.667,0.0
55790.0,STARLINK-5813,PAYLOAD,2024-06-30 11:21:37,14.98324165,0.0003346,70.0005,320.6574,267.7785,92.2991,0.0001998,2.291e-05,0.0,0 STARLINK-5813,1 55790U 23028BB  24182.47334940  .00002291  00000-0  19980-3 0  9996,2 55790  70.0005 320.6574 0003346 267.7785  92.2991 14.98324165 74562,6950.211,96.107,574.401,569.75,0.0
55790.0,STARLINK-5813,PAYLOAD,2024-06-30 14:33:53,14.98323992,0.000337,70.0004,320.3208,267.7247,92.3527,0.00019388,2.221e-05,0.0,0 STARLINK-5813,1 55790U 23028BB  24182.60686987  .00002221  00000-0  19388-3 0  9997,2 55790  70.0004 320.3208 0003370 267.7247  92.3527 14.98323992 74598,6950.211,96.107,574.419,569.734,0.0
55790.0,STARLINK-5813,PAYLOAD,2024-06-30 19:22:17,14.98332594,0.0003449,70.0007,319.817,272.6508,87.4256,0.00012308,1.376e-05,0.0,0 STARLINK-5813,1 55790U 23028BB  24182.80714647  .00001376  00000-0  12308-3 0  9999,2 55790  70.0007 319.8170 0003449 272.6508  87.4256 14.98332594 74620,6950.185,96.107,574.447,569.653,0.0
55790.0,STARLINK-5813,PAYLOAD,2024-07-01 12:59:46,14.98335003,0.0003206,70.0009,317.9655,271.7918,88.2874,-5.1493e-05,-7.07e-06,0.0,0 STARLINK-5813,1 55790U 23028BB  24183.54150754 -.00000707  00000-0 -51493-4 0  9992,2 55790  70.0009 317.9655 0003206 271.7918  88.2874 14.98335003 74729,6950.177,96.107,574.271,569.814,0.0
55790.0,STARLINK-5813,PAYLOAD,2024-07-01 14:35:54,14.98334835,0.0003213,70.0009,317.7972,271.9043,88.1748,-4.7722e-05,-6.62e-06,0.0,0 STARLINK-5813,1 55790U 23028BB  24183.60826728 -.00000662  00000-0 -47722-4 0  9990,2 55790  70.0009 317.7972 0003213 271.9043  88.1748 14.98334835 74741,6950.178,96.107,574.276,569.81,0.0
55790.0,STARLINK-5813,PAYLOAD,2024-07-01 19:24:18,14.98338291,0.0003271,70.0008,317.2922,272.5484,87.5301,1.2518e-05,5.6e-07,0.0,0 STARLINK-5813,1 55790U 23028BB  24183.80854252  .00000056  00000-0  12518-4 0  9995,2 55790  70.0008 317.2922 0003271 272.5484  87.5301 14.98338291 74771,6950.167,96.106,574.306,569.759,0.0
55790.0,STARLINK-5813,PAYLOAD,2024-07-02 13:01:47,14.98327185,0.0003151,70.0011,315.4407,270.8123,89.2675,-1.9686e-05,-3.28e-06,0.0,0 STARLINK-5813,1 55790U 23028BB  24184.54290808 -.00000328  00000-0 -19686-4 0  9995,2 55790  70.0011 315.4407 0003151 270.8123  89.2675 14.98327185 74875,6950.202,96.107,574.257,569.877,0.0
55790.0,STARLINK-5813,PAYLOAD,2024-07-02 14:37:55,14.98328728,0.0003131,70.0013,315.2725,269.6266,90.4534,4.2299e-06,-4.3e-07,0.0,0 STARLINK-5813,1 55790U 23028BB  24184.60966607 -.00000043  00000-0  42299-5 0  9999,2 55790  70.0013 315.2725 0003131 269.6266  90.4534 14.98328728 74894,6950.197,96.107,574.238,569.886,0.0
55790.0,STARLINK-5813,PAYLOAD,2024-07-02 17:50:11,14.98328005,0.0003072,70.0011,314.9359,267.2689,92.8118,1.3412e-05,6.7e-07,0.0,0 STARLINK-5813,1 55790U 23028BB  24184.74318662  .00000067  00000-0  13412-4 0  9995,2 55790  70.0011 314.9359 0003072 267.2689  92.8118 14.98328005 74913,6950.199,96.107,574.199,569.929,0.0
